{
"type": "FeatureCollection",
"name": "haley-plots",
"crs": { "type": "name", "properties": { "name": "urn:ogc:def:crs:OGC:1.3:CRS84" } },
"features": [
{ "type": "Feature", "properties": { "plot_ids": "101" }, "geometry": { "type": "MultiPolygon", "coordinates": [ [ [ [ 720521.850156949018128, 4303020.032985465601087 ], [ 720524.579133553314023, 4303023.348692039959133 ], [ 720524.579133553314023, 4303023.348692039959133 ], [ 720528.686243342934176, 4303020.292238242924213 ], [ 720525.493340715765953, 4303016.744568658061326 ], [ 720521.850156949018128, 4303020.032985465601087 ] ] ] ] } },
{ "type": "Feature", "properties": { "plot_ids": "201" }, "geometry": { "type": "MultiPolygon", "coordinates": [ [ [ [ 720528.962332561728545, 4303019.425294688902795 ], [ 720529.106582694221288, 4303019.529959194362164 ], [ 720533.189471491845325, 4303015.821877786889672 ], [ 720530.275911423959769, 4303012.652239595539868 ], [ 720526.179130390402861, 4303016.343764880672097 ], [ 720528.962332561728545, 4303019.425294688902795 ] ] ] ] } },
{ "type": "Feature", "properties": { "plot_ids": "301" }, "geometry": { "type": "MultiPolygon", "coordinates": [ [ [ [ 720533.66369845776353, 4303015.311101745814085 ], [ 720537.668188946088776, 4303012.148426899686456 ], [ 720534.6210342902923, 4303008.752330770716071 ], [ 720530.79447898408398, 4303012.160683562979102 ], [ 720533.66369845776353, 4303015.311101745814085 ] ] ] ] } },
{ "type": "Feature", "properties": { "plot_ids": "401" }, "geometry": { "type": "MultiPolygon", "coordinates": [ [ [ [ 720521.065179576282389, 4303019.56278161611408 ], [ 720524.947876631747931, 4303016.389451226219535 ], [ 720522.054109377437271, 4303013.344270354136825 ], [ 720518.35143858497031, 4303016.564032419584692 ], [ 720521.065179576282389, 4303019.56278161611408 ] ] ] ] } },
{ "type": "Feature", "properties": { "plot_ids": "501" }, "geometry": { "type": "MultiPolygon", "coordinates": [ [ [ [ 720525.634096494759433, 4303015.559726561419666 ], [ 720529.586254730354995, 4303012.469176782295108 ], [ 720526.719126337673515, 4303009.119512327946723 ], [ 720522.550220237812027, 4303012.758705359883606 ], [ 720525.634096494759433, 4303015.559726561419666 ] ] ] ] } },
{ "type": "Feature", "properties": { "plot_ids": "901" }, "geometry": { "type": "MultiPolygon", "coordinates": [ [ [ [ 720530.051344427396543, 4303011.712149988859892 ], [ 720534.221396137611009, 4303008.410552782937884 ], [ 720531.440285047283396, 4303005.129776703193784 ], [ 720527.357396249659359, 4303008.837858110666275 ], [ 720530.051344427396543, 4303011.712149988859892 ] ] ] ] } },
{ "type": "Feature", "properties": { "plot_ids": "701" }, "geometry": { "type": "MultiPolygon", "coordinates": [ [ [ [ 720517.760545818367973, 4303016.128818275406957 ], [ 720521.443996602552943, 4303012.953396803699434 ], [ 720518.510070915916003, 4303009.49050338100642 ], [ 720514.774860684294254, 4303012.906847831793129 ], [ 720517.760545818367973, 4303016.128818275406957 ] ] ] ] } },
{ "type": "Feature", "properties": { "plot_ids": "801" }, "geometry": { "type": "MultiPolygon", "coordinates": [ [ [ [ 720522.046863049385138, 4303012.024335406720638 ], [ 720525.868663388420828, 4303008.845677243545651 ], [ 720523.239221283933148, 4303005.409422681666911 ], [ 720519.415902669075876, 4303008.956125029362738 ], [ 720522.046863049385138, 4303012.024335406720638 ] ] ] ] } },
{ "type": "Feature", "properties": { "plot_ids": "601" }, "geometry": { "type": "MultiPolygon", "coordinates": [ [ [ [ 720526.613688886864111, 4303008.220526622608304 ], [ 720530.761283897445537, 4303004.824920455925167 ], [ 720528.010621165274642, 4303001.546808263286948 ], [ 720523.962935692979954, 4303005.027858926914632 ], [ 720526.613688886864111, 4303008.220526622608304 ] ] ] ] } },
{ "type": "Feature", "properties": { "plot_ids": "502" }, "geometry": { "type": "MultiPolygon", "coordinates": [ [ [ [ 720538.660970397293568, 4303010.924002818763256 ], [ 720542.663849574630149, 4303007.486019530333579 ], [ 720539.814349563210271, 4303004.137292533181608 ], [ 720536.006385621614754, 4303007.807566753588617 ], [ 720538.660970397293568, 4303010.924002818763256 ] ] ] ] } },
{ "type": "Feature", "properties": { "plot_ids": "402" }, "geometry": { "type": "MultiPolygon", "coordinates": [ [ [ [ 720542.956745297065936, 4303006.844406602904201 ], [ 720547.006082660867833, 4303003.367440267466009 ], [ 720544.236156094120815, 4303000.585293998010457 ], [ 720540.341947243665345, 4303004.011260901577771 ], [ 720542.956745297065936, 4303006.844406602904201 ] ] ] ] } },
{ "type": "Feature", "properties": { "plot_ids": "102" }, "geometry": { "type": "MultiPolygon", "coordinates": [ [ [ [ 720547.649825807544403, 4303003.143951018340886 ], [ 720551.691688032005914, 4302999.752425916492939 ], [ 720548.784517125110142, 4302996.57084381673485 ], [ 720544.902324658818543, 4303000.105481048114598 ], [ 720547.649825807544403, 4303003.143951018340886 ] ] ] ] } },
{ "type": "Feature", "properties": { "plot_ids": "702" }, "geometry": { "type": "MultiPolygon", "coordinates": [ [ [ [ 720535.127136841532774, 4303007.27864252962172 ], [ 720539.133753588539548, 4303003.79793862439692 ], [ 720536.347269392805174, 4303000.713010467588902 ], [ 720532.453864217502996, 4303004.375809549354017 ], [ 720535.127136841532774, 4303007.27864252962172 ] ] ] ] } },
{ "type": "Feature", "properties": { "plot_ids": "202" }, "geometry": { "type": "MultiPolygon", "coordinates": [ [ [ [ 720539.524106928845868, 4303003.272471163421869 ], [ 720543.752605574438348, 4302999.961846049875021 ], [ 720540.918859516968951, 4302996.679068763740361 ], [ 720536.87406339799054, 4303000.350146659649909 ], [ 720539.524106928845868, 4303003.272471163421869 ] ] ] ] } },
{ "type": "Feature", "properties": { "plot_ids": "602" }, "geometry": { "type": "MultiPolygon", "coordinates": [ [ [ [ 720544.18567953153979, 4302999.440116158686578 ], [ 720548.21259147732053, 4302996.219473524019122 ], [ 720545.149488381808624, 4302992.852058678865433 ], [ 720541.26729591563344, 4302996.386695909313858 ], [ 720544.18567953153979, 4302999.440116158686578 ] ] ] ] } },
{ "type": "Feature", "properties": { "plot_ids": "802" }, "geometry": { "type": "MultiPolygon", "coordinates": [ [ [ [ 720531.796497336123139, 4303004.016964117065072 ], [ 720535.686164941755123, 4303000.396885652095079 ], [ 720532.961089211050421, 4302997.102091981098056 ], [ 720528.888522754074074, 4303000.598549840040505 ], [ 720531.796497336123139, 4303004.016964117065072 ] ] ] ] } },
{ "type": "Feature", "properties": { "plot_ids": "302" }, "geometry": { "type": "MultiPolygon", "coordinates": [ [ [ [ 720536.17690979433246, 4302999.708010862581432 ], [ 720540.300475682714023, 4302996.366681517101824 ], [ 720537.339371449896134, 4302993.309523698873818 ], [ 720533.519391124136746, 4302996.871127592399716 ], [ 720536.17690979433246, 4302999.708010862581432 ] ] ] ] } },
{ "type": "Feature", "properties": { "plot_ids": "902" }, "geometry": { "type": "MultiPolygon", "coordinates": [ [ [ [ 720540.718599361134693, 4302996.015834093093872 ], [ 720545.039210704504512, 4302992.390410708263516 ], [ 720541.972370039322414, 4302989.06571647990495 ], [ 720537.877378164208494, 4302992.818498039618134 ], [ 720540.718599361134693, 4302996.015834093093872 ] ] ] ] } },
{ "type": "Feature", "properties": { "plot_ids": "703" }, "geometry": { "type": "MultiPolygon", "coordinates": [ [ [ [ 720552.670243842643686, 4302998.654229131527245 ], [ 720556.487290274002589, 4302995.372178032062948 ], [ 720553.753935728804208, 4302991.925993417389691 ], [ 720549.766810505418107, 4302995.429926415905356 ], [ 720552.670243842643686, 4302998.654229131527245 ] ] ] ] } },
{ "type": "Feature", "properties": { "plot_ids": "103" }, "geometry": { "type": "MultiPolygon", "coordinates": [ [ [ [ 720557.052048772806302, 4302994.766146429814398 ], [ 720561.381752117886208, 4302991.170577337034047 ], [ 720558.422320269863121, 4302987.956360536627471 ], [ 720554.387167355278507, 4302991.679606351070106 ], [ 720557.052048772806302, 4302994.766146429814398 ] ] ] ] } },
{ "type": "Feature", "properties": { "plot_ids": "203" }, "geometry": { "type": "MultiPolygon", "coordinates": [ [ [ [ 720561.604491838952526, 4302990.721292803995311 ], [ 720565.57441730692517, 4302987.277679643593729 ], [ 720562.652660408290103, 4302984.331716910935938 ], [ 720558.947449818719178, 4302987.778108241967857 ], [ 720561.604491838952526, 4302990.721292803995311 ] ] ] ] } },
{ "type": "Feature", "properties": { "plot_ids": "803" }, "geometry": { "type": "MultiPolygon", "coordinates": [ [ [ [ 720549.192269684397615, 4302994.914141431450844 ], [ 720553.070671342895366, 4302991.584809253923595 ], [ 720550.358258425956592, 4302988.575636226683855 ], [ 720546.557223819079809, 4302991.952499903738499 ], [ 720549.192269684397615, 4302994.914141431450844 ] ] ] ] } },
{ "type": "Feature", "properties": { "plot_ids": "303" }, "geometry": { "type": "MultiPolygon", "coordinates": [ [ [ [ 720553.778087492333725, 4302990.95373323559761 ], [ 720557.782148720114492, 4302987.818827264010906 ], [ 720554.805020924890414, 4302984.806876066140831 ], [ 720551.11750628252048, 4302988.05100179463625 ], [ 720553.778087492333725, 4302990.95373323559761 ] ] ] ] } },
{ "type": "Feature", "properties": { "plot_ids": "903" }, "geometry": { "type": "MultiPolygon", "coordinates": [ [ [ [ 720558.342670163372532, 4302987.236043764278293 ], [ 720562.301978062954731, 4302983.913789966143668 ], [ 720559.081370526226237, 4302980.656341873109341 ], [ 720555.423691436066292, 4302984.025366152636707 ], [ 720558.342670163372532, 4302987.236043764278293 ] ] ] ] } },
{ "type": "Feature", "properties": { "plot_ids": "403" }, "geometry": { "type": "MultiPolygon", "coordinates": [ [ [ [ 720546.203002284280956, 4302991.575026079080999 ], [ 720550.14385321829468, 4302988.230776125565171 ], [ 720547.323476679273881, 4302984.82491129077971 ], [ 720543.405382918543182, 4302988.374966036528349 ], [ 720546.203002284280956, 4302991.575026079080999 ] ] ] ] } },
{ "type": "Feature", "properties": { "plot_ids": "503" }, "geometry": { "type": "MultiPolygon", "coordinates": [ [ [ [ 720550.590093678911217, 4302987.55646881647408 ], [ 720554.49403068178799, 4302984.16822655312717 ], [ 720551.680732521694154, 4302980.681455477140844 ], [ 720547.674654140952043, 4302984.305338084697723 ], [ 720550.590093678911217, 4302987.55646881647408 ] ] ] ] } },
{ "type": "Feature", "properties": { "plot_ids": "603" }, "geometry": { "type": "MultiPolygon", "coordinates": [ [ [ [ 720555.010559815098532, 4302983.622356983833015 ], [ 720558.730688180890866, 4302980.23841492831707 ], [ 720556.182104898965918, 4302976.75442202296108 ], [ 720552.252632551593706, 4302980.201574372127652 ], [ 720555.010559815098532, 4302983.622356983833015 ] ] ] ] } }
]
}
