{
"type": "FeatureCollection",
"name": "tef-plot-polygons",
"crs": { "type": "name", "properties": { "name": "urn:ogc:def:crs:EPSG::32615" } },
"features": [
{ "type": "Feature", "properties": { "id": 101 }, "geometry": { "type": "MultiPolygon", "coordinates": [ [ [ [ 720524.671965571702458, 4303023.567455364391208 ], [ 720528.771618176600896, 4303019.986679892987013 ], [ 720525.48578313854523, 4303016.719310767017305 ], [ 720521.681974575389177, 4303020.310417355969548 ], [ 720524.671965571702458, 4303023.567455364391208 ] ] ] ] } },
{ "type": "Feature", "properties": { "id": 201 }, "geometry": { "type": "MultiPolygon", "coordinates": [ [ [ [ 720529.360577825456858, 4303019.432882418856025 ], [ 720533.021784444572404, 4303016.444274932146072 ], [ 720529.984539619181305, 4303012.911221398040652 ], [ 720526.216671768692322, 4303016.28626521397382 ], [ 720529.360577825456858, 4303019.432882418856025 ] ] ] ] } },
{ "type": "Feature", "properties": { "id": 301 }, "geometry": { "type": "MultiPolygon", "coordinates": [ [ [ [ 720533.470934218843468, 4303015.787795159034431 ], [ 720537.651199596119113, 4303012.194051221013069 ], [ 720534.422059767646715, 4303009.031216766685247 ], [ 720530.783591873943806, 4303012.420477936975658 ], [ 720533.470934218843468, 4303015.787795159034431 ] ] ] ] } },
{ "type": "Feature", "properties": { "id": 401 }, "geometry": { "type": "MultiPolygon", "coordinates": [ [ [ [ 720521.227820642408915, 4303019.907239609397948 ], [ 720525.083995359600522, 4303016.532560761086643 ], [ 720521.881735905306414, 4303013.360627607442439 ], [ 720518.168305363389663, 4303016.818257878534496 ], [ 720521.227820642408915, 4303019.907239609397948 ] ] ] ] } },
{ "type": "Feature", "properties": { "id": 501 }, "geometry": { "type": "MultiPolygon", "coordinates": [ [ [ [ 720525.594013930880465, 4303015.824555968865752 ], [ 720529.489662965177558, 4303012.526982643641531 ], [ 720526.373348255758174, 4303009.378991586156189 ], [ 720522.483442533528432, 4303012.64307099301368 ], [ 720525.594013930880465, 4303015.824555968865752 ] ] ] ] } },
{ "type": "Feature", "properties": { "id": 901 }, "geometry": { "type": "MultiPolygon", "coordinates": [ [ [ [ 720530.169927495531738, 4303011.895898354239762 ], [ 720534.045845114160329, 4303008.55977534968406 ], [ 720531.062899707001634, 4303005.38076928537339 ], [ 720527.112863847287372, 4303008.924812680110335 ], [ 720530.169927495531738, 4303011.895898354239762 ] ] ] ] } },
{ "type": "Feature", "properties": { "id": 701 }, "geometry": { "type": "MultiPolygon", "coordinates": [ [ [ [ 720517.833842489053495, 4303016.259814918972552 ], [ 720521.398032928002067, 4303012.911263625137508 ], [ 720518.593729204847477, 4303009.64880592841655 ], [ 720515.031226622057147, 4303012.966728210449219 ], [ 720517.833842489053495, 4303016.259814918972552 ] ] ] ] } },
{ "type": "Feature", "properties": { "id": 801 }, "geometry": { "type": "MultiPolygon", "coordinates": [ [ [ [ 720522.108731479966082, 4303012.254416355863214 ], [ 720526.084985369700007, 4303008.943868487142026 ], [ 720522.929190509254113, 4303005.56543364468962 ], [ 720519.307764493394643, 4303009.089028324000537 ], [ 720522.108731479966082, 4303012.254416355863214 ] ] ] ] } },
{ "type": "Feature", "properties": { "id": 601 }, "geometry": { "type": "MultiPolygon", "coordinates": [ [ [ [ 720526.701052887947299, 4303008.698668256402016 ], [ 720530.813076832797378, 4303004.886399607174098 ], [ 720527.877857500687242, 4303001.7201146511361 ], [ 720523.945316769415513, 4303005.077547202818096 ], [ 720526.701052887947299, 4303008.698668256402016 ] ] ] ] } },
{ "type": "Feature", "properties": { "id": 502 }, "geometry": { "type": "MultiPolygon", "coordinates": [ [ [ [ 720538.709046105388552, 4303011.022326651029289 ], [ 720542.597331685828976, 4303007.454713719896972 ], [ 720539.594017726485617, 4303003.973910177126527 ], [ 720535.732839034521021, 4303007.850122086703777 ], [ 720538.709046105388552, 4303011.022326651029289 ] ] ] ] } },
{ "type": "Feature", "properties": { "id": 402 }, "geometry": { "type": "MultiPolygon", "coordinates": [ [ [ [ 720543.29566886369139, 4303007.029362193308771 ], [ 720547.270270591136068, 4303003.886004378087819 ], [ 720544.137846096418798, 4303000.238202241249382 ], [ 720540.240520946448669, 4303003.702948718331754 ], [ 720543.29566886369139, 4303007.029362193308771 ] ] ] ] } },
{ "type": "Feature", "properties": { "id": 102 }, "geometry": { "type": "MultiPolygon", "coordinates": [ [ [ [ 720547.867428734432906, 4303003.412606794387102 ], [ 720551.907945335260592, 4302999.798624166287482 ], [ 720548.617562545812689, 4302996.285107223317027 ], [ 720544.594350606552325, 4302999.932895381934941 ], [ 720547.867428734432906, 4303003.412606794387102 ] ] ] ] } },
{ "type": "Feature", "properties": { "id": 702 }, "geometry": { "type": "MultiPolygon", "coordinates": [ [ [ [ 720535.266356359352358, 4303007.489621477201581 ], [ 720539.31624674750492, 4303003.81923945993185 ], [ 720536.232058097724803, 4303000.857964361086488 ], [ 720532.235540930996649, 4303004.483169033192098 ], [ 720535.266356359352358, 4303007.489621477201581 ] ] ] ] } },
{ "type": "Feature", "properties": { "id": 202 }, "geometry": { "type": "MultiPolygon", "coordinates": [ [ [ [ 720539.77930003637448, 4303003.378825867548585 ], [ 720543.942404546309263, 4302999.854875869117677 ], [ 720540.942652747035027, 4302996.386059490032494 ], [ 720536.713875060202554, 4303000.304764029569924 ], [ 720539.77930003637448, 4303003.378825867548585 ] ] ] ] } },
{ "type": "Feature", "properties": { "id": 602 }, "geometry": { "type": "MultiPolygon", "coordinates": [ [ [ [ 720544.323939440655522, 4302999.628821178339422 ], [ 720548.301700910553336, 4302996.116408828645945 ], [ 720545.129529501544312, 4302993.132701359689236 ], [ 720541.357338022673503, 4302996.374202761799097 ], [ 720544.323939440655522, 4302999.628821178339422 ] ] ] ] } },
{ "type": "Feature", "properties": { "id": 802 }, "geometry": { "type": "MultiPolygon", "coordinates": [ [ [ [ 720531.649267881526612, 4303004.010397530160844 ], [ 720535.840513708302751, 4303000.317263587377965 ], [ 720532.724630743381567, 4302996.995201511308551 ], [ 720528.754800064256415, 4303000.597818478941917 ], [ 720531.649267881526612, 4303004.010397530160844 ] ] ] ] } },
{ "type": "Feature", "properties": { "id": 302 }, "geometry": { "type": "MultiPolygon", "coordinates": [ [ [ [ 720536.346099252114072, 4303000.034654592163861 ], [ 720540.582799693802372, 4302996.20614698715508 ], [ 720537.474839659640566, 4302992.974280173890293 ], [ 720533.106165409437381, 4302996.769146289676428 ], [ 720536.346099252114072, 4303000.034654592163861 ] ] ] ] } },
{ "type": "Feature", "properties": { "id": 902 }, "geometry": { "type": "MultiPolygon", "coordinates": [ [ [ [ 720540.989562161965296, 4302996.104093109257519 ], [ 720545.072610931936651, 4302992.64791184104979 ], [ 720542.135611670091748, 4302989.077523042447865 ], [ 720537.890984097844921, 4302992.815832851454616 ], [ 720540.989562161965296, 4302996.104093109257519 ] ] ] ] } },
{ "type": "Feature", "properties": { "id": 703 }, "geometry": { "type": "MultiPolygon", "coordinates": [ [ [ [ 720552.853966235066764, 4302998.847831855528057 ], [ 720556.903368915314786, 4302995.049791008234024 ], [ 720553.665116013027728, 4302991.865275439806283 ], [ 720549.777466049650684, 4302995.217774569988251 ], [ 720552.853966235066764, 4302998.847831855528057 ] ] ] ] } },
{ "type": "Feature", "properties": { "id": 103 }, "geometry": { "type": "MultiPolygon", "coordinates": [ [ [ [ 720557.431656274828129, 4302995.034687219187617 ], [ 720561.491156042087823, 4302991.351554972119629 ], [ 720558.278666729805991, 4302987.836605002172291 ], [ 720554.263257371727377, 4302991.605867608450353 ], [ 720557.431656274828129, 4302995.034687219187617 ] ] ] ] } },
{ "type": "Feature", "properties": { "id": 203 }, "geometry": { "type": "MultiPolygon", "coordinates": [ [ [ [ 720561.798991873045452, 4302990.905807638540864 ], [ 720565.748269877047278, 4302987.007355502806604 ], [ 720562.81041575758718, 4302984.124082861468196 ], [ 720558.652638118364848, 4302987.520050667226315 ], [ 720561.798991873045452, 4302990.905807638540864 ] ] ] ] } },
{ "type": "Feature", "properties": { "id": 803 }, "geometry": { "type": "MultiPolygon", "coordinates": [ [ [ [ 720549.329125519492663, 4302995.103481412865222 ], [ 720553.284770054975525, 4302991.693426689133048 ], [ 720550.440671575837769, 4302988.422170823439956 ], [ 720546.551162647665478, 4302991.961419977247715 ], [ 720549.329125519492663, 4302995.103481412865222 ] ] ] ] } },
{ "type": "Feature", "properties": { "id": 303 }, "geometry": { "type": "MultiPolygon", "coordinates": [ [ [ [ 720553.794730525813065, 4302991.261761393398046 ], [ 720558.012265029828995, 4302987.506580990739167 ], [ 720554.942137077217922, 4302984.364925153553486 ], [ 720550.668560002464801, 4302988.105820530094206 ], [ 720553.794730525813065, 4302991.261761393398046 ] ] ] ] } },
{ "type": "Feature", "properties": { "id": 903 }, "geometry": { "type": "MultiPolygon", "coordinates": [ [ [ [ 720558.452372056432068, 4302987.319219761528075 ], [ 720562.489830719307065, 4302983.59302350692451 ], [ 720559.397657519904897, 4302980.40830157045275 ], [ 720555.372151109622791, 4302984.062657346948981 ], [ 720558.452372056432068, 4302987.319219761528075 ] ] ] ] } },
{ "type": "Feature", "properties": { "id": 403 }, "geometry": { "type": "MultiPolygon", "coordinates": [ [ [ [ 720546.014640851411968, 4302991.674869666807353 ], [ 720550.288213801686652, 4302987.933971938677132 ], [ 720547.558056860114448, 4302984.504542086273432 ], [ 720543.272531564580277, 4302988.317283348180354 ], [ 720546.014640851411968, 4302991.674869666807353 ] ] ] ] } },
{ "type": "Feature", "properties": { "id": 503 }, "geometry": { "type": "MultiPolygon", "coordinates": [ [ [ [ 720550.470152749563567, 4302987.718241389840841 ], [ 720554.709732515737414, 4302984.00612358469516 ], [ 720551.799495715997182, 4302980.605674280785024 ], [ 720547.739995797630399, 4302984.288811474107206 ], [ 720550.470152749563567, 4302987.718241389840841 ] ] ] ] } },
{ "type": "Feature", "properties": { "id": 603 }, "geometry": { "type": "MultiPolygon", "coordinates": [ [ [ [ 720555.105749154812656, 4302983.732633445411921 ], [ 720559.075212921947241, 4302980.063990823924541 ], [ 720556.017034362535924, 4302976.850492672994733 ], [ 720552.195512403501198, 4302980.332183994352818 ], [ 720555.105749154812656, 4302983.732633445411921 ] ] ] ] } }
]
}
